{"type": "FeatureCollection", "features": [{"type": "Feature", "id": "C001", "properties": {"id": "C001", "parcel": "Pallikaranai-West-1", "lon": 80.194088, "lat": 12.938768}, "geometry": {"type": "Polygon", "coordinates": [[[80.19431875478234, 12.938542457318606], [80.19431730344438, 12.938994550311158], [80.19385638297587, 12.938993126334987], [80.19385783514392, 12.938541033393859], [80.19431875478234, 12.938542457318606]]]}}, {"type": "Feature", "id": "C002", "properties": {"id": "C002", "parcel": "Pallikaranai-West-1", "lon": 80.194503, "lat": 12.941019}, "geometry": {"type": "Polygon", "coordinates": [[[80.19473457564553, 12.940793946062028], [80.19473312479543, 12.941246039023108], [80.19427220014444, 12.941244615538416], [80.19427365182476, 12.940792522628735], [80.19473457564553, 12.940793946062028]]]}}, {"type": "Feature", "id": "C003", "properties": {"id": "C003", "parcel": "Pallikaranai-Control-Builtup", "lon": 80.198288, "lat": 12.942705}, "geometry": {"type": "Polygon", "coordinates": [[[80.19851914857205, 12.94247988236255], [80.19851770434559, 12.942931975686587], [80.19805677616797, 12.942930558708378], [80.19805822122478, 12.942478465435492], [80.19851914857205, 12.94247988236255]]]}}, {"type": "Feature", "id": "C004", "properties": {"id": "C004", "parcel": "Pallikaranai-Control-Builtup", "lon": 80.197146, "lat": 12.942462}, "geometry": {"type": "Polygon", "coordinates": [[[80.19737670468685, 12.942237131718455], [80.19737525842994, 12.942689224923926], [80.19691433082775, 12.942687805952778], [80.196915777915, 12.942235712798533], [80.19737670468685, 12.942237131718455]]]}}, {"type": "Feature", "id": "C005", "properties": {"id": "C005", "parcel": "Pallikaranai-West-1", "lon": 80.19515, "lat": 12.937963}, "geometry": {"type": "Polygon", "coordinates": [[[80.19538101796886, 12.937737208650864], [80.19537956863762, 12.938189301789778], [80.19491864952703, 12.938187879777319], [80.19492009968828, 12.937735786689759], [80.19538101796886, 12.937737208650864]]]}}, {"type": "Feature", "id": "C006", "properties": {"id": "C006", "parcel": "Pallikaranai-West-1", "lon": 80.194382, "lat": 12.941499}, "geometry": {"type": "Polygon", "coordinates": [[[80.19461352256056, 12.941273740969756], [80.19461207143672, 12.941725833900732], [80.19415114591818, 12.941724410150297], [80.19415259787229, 12.941272317270727], [80.19461352256056, 12.941273740969756]]]}}, {"type": "Feature", "id": "C007", "properties": {"id": "C007", "parcel": "Pallikaranai-West-1", "lon": 80.194343, "lat": 12.939306}, "geometry": {"type": "Polygon", "coordinates": [[[80.19457402246302, 12.939080568876491], [80.19457257152243, 12.939532661878921], [80.19411165003663, 12.939531238295624], [80.19411310180732, 12.9390791453446], [80.19457402246302, 12.939080568876491]]]}}, {"type": "Feature", "id": "C008", "properties": {"id": "C008", "parcel": "Pallikaranai-West-1", "lon": 80.196601, "lat": 12.938362}, "geometry": {"type": "Polygon", "coordinates": [[[80.19683207865116, 12.938136598824528], [80.1968306318873, 12.938588692111258], [80.19636971187843, 12.938587272619351], [80.19637115947233, 12.938135179383881], [80.19683207865116, 12.938136598824528]]]}}, {"type": "Feature", "id": "C009", "properties": {"id": "C009", "parcel": "Pallikaranai-Control-Builtup", "lon": 80.197611, "lat": 12.942718}, "geometry": {"type": "Polygon", "coordinates": [[[80.19784261825052, 12.942492240448399], [80.19784117280363, 12.942944333696845], [80.19738024467996, 12.942942915521657], [80.19738169095722, 12.942490822324407], [80.19784261825052, 12.942492240448399]]]}}, {"type": "Feature", "id": "C010", "properties": {"id": "C010", "parcel": "Pallikaranai-Control-Marsh", "lon": 80.189417, "lat": 12.944212}, "geometry": {"type": "Polygon", "coordinates": [[[80.18964823805607, 12.943986829519448], [80.18964677766984, 12.944438921800735], [80.18918584773395, 12.944437488980938], [80.18918730895062, 12.943985396751367], [80.18964823805607, 12.943986829519448]]]}}, {"type": "Feature", "id": "C011", "properties": {"id": "C011", "parcel": "Pallikaranai-West-1", "lon": 80.192614, "lat": 12.939735}, "geometry": {"type": "Polygon", "coordinates": [[[80.19284508543159, 12.939509404292068], [80.19284363132674, 12.939961497086504], [80.19238270925034, 12.939960070401968], [80.19238416418531, 12.939507977659048], [80.19284508543159, 12.939509404292068]]]}}, {"type": "Feature", "id": "C012", "properties": {"id": "C012", "parcel": "Pallikaranai-West-1", "lon": 80.196416, "lat": 12.940513}, "geometry": {"type": "Polygon", "coordinates": [[[80.19664707436586, 12.940287997748845], [80.19664562701983, 12.940740090940565], [80.19618470308079, 12.940738670889978], [80.196186151257, 12.940286577749529], [80.19664707436586, 12.940287997748845]]]}}, {"type": "Feature", "id": "C013", "properties": {"id": "C013", "parcel": "Pallikaranai-West-1", "lon": 80.193992, "lat": 12.938311}, "geometry": {"type": "Polygon", "coordinates": [[[80.19422307477323, 12.938086161322028], [80.19422162331588, 12.938538254319681], [80.19376070369623, 12.93853683022378], [80.19376215598362, 12.938084737277554], [80.19422307477323, 12.938086161322028]]]}}, {"type": "Feature", "id": "C014", "properties": {"id": "C014", "parcel": "Pallikaranai-West-1", "lon": 80.196958, "lat": 12.940839}, "geometry": {"type": "Polygon", "coordinates": [[[80.1971893054968, 12.940613830333671], [80.19718785908995, 12.941065923574458], [80.19672693449088, 12.941064504446922], [80.19672838172797, 12.940612411257373], [80.1971893054968, 12.940613830333671]]]}}, {"type": "Feature", "id": "C015", "properties": {"id": "C015", "parcel": "Pallikaranai-Control-Marsh", "lon": 80.189791, "lat": 12.94468}, "geometry": {"type": "Polygon", "coordinates": [[[80.19002200147722, 12.944454378643373], [80.19002054170997, 12.944906470950441], [80.18955961087225, 12.944905038740483], [80.18956107146997, 12.94445294648511], [80.19002200147722, 12.944454378643373]]]}}, {"type": "Feature", "id": "C016", "properties": {"id": "C016", "parcel": "Pallikaranai-West-1", "lon": 80.193936, "lat": 12.940052}, "geometry": {"type": "Polygon", "coordinates": [[[80.19416744756181, 12.939826250706274], [80.1941659958023, 12.940278343637521], [80.19370507299327, 12.94027691925526], [80.19370652558293, 12.939824826375443], [80.19416744756181, 12.939826250706274]]]}}, {"type": "Feature", "id": "C017", "properties": {"id": "C017", "parcel": "Pallikaranai-West-1", "lon": 80.196648, "lat": 12.941498}, "geometry": {"type": "Polygon", "coordinates": [[[80.19687945518234, 12.941272257598317], [80.19687800814113, 12.94172435078185], [80.19641708236779, 12.941722931035857], [80.19641853023927, 12.941270837903579], [80.19687945518234, 12.941272257598317]]]}}, {"type": "Feature", "id": "C018", "properties": {"id": "C018", "parcel": "Pallikaranai-Control-Builtup", "lon": 80.198392, "lat": 12.942202}, "geometry": {"type": "Polygon", "coordinates": [[[80.19862343600744, 12.941977090833756], [80.19862199202691, 12.942429184186771], [80.19816106476114, 12.942427767446917], [80.19816250957197, 12.941975674145054], [80.19862343600744, 12.941977090833756]]]}}, {"type": "Feature", "id": "C019", "properties": {"id": "C019", "parcel": "Pallikaranai-Control-Marsh", "lon": 80.188634, "lat": 12.944195}, "geometry": {"type": "Polygon", "coordinates": [[[80.18886543715887, 12.943969816921753], [80.188863975364, 12.944421909115691], [80.18840304554905, 12.94442047491412], [80.18840450817439, 12.943968382771953], [80.18886543715887, 12.943969816921753]]]}}, {"type": "Feature", "id": "C020", "properties": {"id": "C020", "parcel": "Pallikaranai-West-1", "lon": 80.197257, "lat": 12.939508}, "geometry": {"type": "Polygon", "coordinates": [[[80.19748795945725, 12.939282701652711], [80.1974865137423, 12.939734794972763], [80.19702559155422, 12.939733376516259], [80.19702703809931, 12.939281283247425], [80.19748795945725, 12.939282701652711]]]}}, {"type": "Feature", "id": "C021", "properties": {"id": "C021", "parcel": "Pallikaranai-West-1", "lon": 80.195023, "lat": 12.941214}, "geometry": {"type": "Polygon", "coordinates": [[[80.19525409869189, 12.940988847652653], [80.19525264875517, 12.941440940664936], [80.19479172368706, 12.941439518077262], [80.19479317445403, 12.94098742511634], [80.19525409869189, 12.940988847652653]]]}}, {"type": "Feature", "id": "C022", "properties": {"id": "C022", "parcel": "Pallikaranai-West-1", "lon": 80.195684, "lat": 12.940914}, "geometry": {"type": "Polygon", "coordinates": [[[80.19591524295419, 12.94068866667901], [80.19591379424335, 12.941140759775372], [80.19545286965149, 12.941139338388398], [80.19545431919254, 12.940687245343357], [80.19591524295419, 12.94068866667901]]]}}, {"type": "Feature", "id": "C023", "properties": {"id": "C023", "parcel": "Pallikaranai-West-1", "lon": 80.19284, "lat": 12.93916}, "geometry": {"type": "Polygon", "coordinates": [[[80.1930714969093, 12.93893433503464], [80.19307004327915, 12.939386427874286], [80.19260912223308, 12.939385001652047], [80.19261057669333, 12.9389329088639], [80.1930714969093, 12.93893433503464]]]}}, {"type": "Feature", "id": "C024", "properties": {"id": "C024", "parcel": "Pallikaranai-West-1", "lon": 80.196086, "lat": 12.938867}, "geometry": {"type": "Polygon", "coordinates": [[[80.19631686637206, 12.93864141944359], [80.19631541862177, 12.939093512655507], [80.19585449774434, 12.93909209219893], [80.1958559463247, 12.938639999038308], [80.19631686637206, 12.93864141944359]]]}}, {"type": "Feature", "id": "C025", "properties": {"id": "C025", "parcel": "Pallikaranai-Control-Builtup", "lon": 80.19784, "lat": 12.943293}, "geometry": {"type": "Polygon", "coordinates": [[[80.19807127067739, 12.943067430330958], [80.19806982557606, 12.943519523584916], [80.19760889636977, 12.943518105751965], [80.1976103423015, 12.943066012549185], [80.19807127067739, 12.943067430330958]]]}}, {"type": "Feature", "id": "C026", "properties": {"id": "C026", "parcel": "Pallikaranai-Control-Marsh", "lon": 80.18817, "lat": 12.943452}, "geometry": {"type": "Polygon", "coordinates": [[[80.18840126523558, 12.943226876891355], [80.18839980269111, 12.943678969058816], [80.18793887429435, 12.943677534117686], [80.18794033766922, 12.943225442002028], [80.18840126523558, 12.943226876891355]]]}}, {"type": "Feature", "id": "C027", "properties": {"id": "C027", "parcel": "Pallikaranai-West-1", "lon": 80.195617, "lat": 12.939203}, "geometry": {"type": "Polygon", "coordinates": [[[80.19584805998734, 12.938978088003418], [80.1958466113536, 12.939430181151463], [80.19538568991112, 12.93942875983028], [80.19538713937496, 12.938976666733558], [80.19584805998734, 12.938978088003418]]]}}, {"type": "Feature", "id": "C028", "properties": {"id": "C028", "parcel": "Pallikaranai-Control-Marsh", "lon": 80.188824, "lat": 12.943514}, "geometry": {"type": "Polygon", "coordinates": [[[80.18905504194066, 12.943288522220135], [80.18905358056703, 12.943740614458953], [80.18859265198208, 12.94373918066662], [80.1885941141861, 12.943287088479561], [80.18905504194066, 12.943288522220135]]]}}, {"type": "Feature", "id": "C029", "properties": {"id": "C029", "parcel": "Pallikaranai-West-1", "lon": 80.194157, "lat": 12.937824}, "geometry": {"type": "Polygon", "coordinates": [[[80.1943885687946, 12.937598800862345], [80.19438711769187, 12.938050893895326], [80.19392619894836, 12.938049470144476], [80.1939276508811, 12.937597377162911], [80.1943885687946, 12.937598800862345]]]}}, {"type": "Feature", "id": "C030", "properties": {"id": "C030", "parcel": "Pallikaranai-Control-Marsh", "lon": 80.189419, "lat": 12.943491}, "geometry": {"type": "Polygon", "coordinates": [[[80.18964974240957, 12.943265926829378], [80.1896482821102, 12.94371801913578], [80.18918735349862, 12.943716586396997], [80.1891888146284, 12.943264494142316], [80.18964974240957, 12.943265926829378]]]}}, {"type": "Feature", "id": "C031", "properties": {"id": "C031", "parcel": "Pallikaranai-West-1", "lon": 80.195085, "lat": 12.939175}, "geometry": {"type": "Polygon", "coordinates": [[[80.19531584434571, 12.93894959054277], [80.19531439475658, 12.939401683632482], [80.19485347342695, 12.939400261374024], [80.19485492384617, 12.93894816833567], [80.19531584434571, 12.93894959054277]]]}}, {"type": "Feature", "id": "C032", "properties": {"id": "C032", "parcel": "Pallikaranai-West-1", "lon": 80.193754, "lat": 12.939369}, "geometry": {"type": "Polygon", "coordinates": [[[80.1939850608271, 12.939144073431189], [80.19398360881823, 12.93959616636567], [80.19352268728287, 12.939594741734885], [80.19352414012185, 12.939142648851847], [80.1939850608271, 12.939144073431189]]]}}, {"type": "Feature", "id": "C033", "properties": {"id": "C033", "parcel": "Pallikaranai-West-1", "lon": 80.194762, "lat": 12.940369}, "geometry": {"type": "Polygon", "coordinates": [[[80.19499281261125, 12.940143415587649], [80.19499136230182, 12.940595508600039], [80.1945304388163, 12.940594085641926], [80.19453188995591, 12.940141992680914], [80.19499281261125, 12.940143415587649]]]}}, {"type": "Feature", "id": "C034", "properties": {"id": "C034", "parcel": "Pallikaranai-West-1", "lon": 80.196752, "lat": 12.938876}, "geometry": {"type": "Polygon", "coordinates": [[[80.19698342954202, 12.938650163646974], [80.19698198299137, 12.939102256932783], [80.1965210620222, 12.939100837652957], [80.19652250940293, 12.938648744418396], [80.19698342954202, 12.938650163646974]]]}}, {"type": "Feature", "id": "C035", "properties": {"id": "C035", "parcel": "Pallikaranai-West-1", "lon": 80.193904, "lat": 12.940974}, "geometry": {"type": "Polygon", "coordinates": [[[80.19413521393761, 12.940749157086946], [80.19413376201292, 12.941201249982674], [80.19367283751242, 12.941199825443691], [80.19367429026734, 12.940747732599402], [80.19413521393761, 12.940749157086946]]]}}, {"type": "Feature", "id": "C036", "properties": {"id": "C036", "parcel": "Pallikaranai-West-1", "lon": 80.196263, "lat": 12.940009}, "geometry": {"type": "Polygon", "coordinates": [[[80.19649468495285, 12.939783245457118], [80.19649323739073, 12.940235338649337], [80.19603231439605, 12.940233918383871], [80.19603376278833, 12.939781825242934], [80.19649468495285, 12.939783245457118]]]}}, {"type": "Feature", "id": "C037", "properties": {"id": "C037", "parcel": "Pallikaranai-West-1", "lon": 80.193247, "lat": 12.940034}, "geometry": {"type": "Polygon", "coordinates": [[[80.19347819134101, 12.939808260830533], [80.19347673834193, 12.94026035368541], [80.19301581564446, 12.940258928087196], [80.1930172694737, 12.939806835283795], [80.19347819134101, 12.939808260830533]]]}}, {"type": "Feature", "id": "C038", "properties": {"id": "C038", "parcel": "Pallikaranai-West-1", "lon": 80.19555, "lat": 12.941506}, "geometry": {"type": "Polygon", "coordinates": [[[80.1957813675717, 12.941280995253523], [80.19577991855107, 12.941733088314475], [80.19531899288641, 12.941731666627039], [80.19532044273728, 12.941279573617411], [80.1957813675717, 12.941280995253523]]]}}, {"type": "Feature", "id": "C039", "properties": {"id": "C039", "parcel": "Pallikaranai-Control-Marsh", "lon": 80.189, "lat": 12.944914}, "geometry": {"type": "Polygon", "coordinates": [[[80.18923110546216, 12.944689049884477], [80.18922964424223, 12.945141142094617], [80.1887687130639, 12.945139708461161], [80.18877017511431, 12.94468761630277], [80.18923110546216, 12.944689049884477]]]}}, {"type": "Feature", "id": "C040", "properties": {"id": "C040", "parcel": "Pallikaranai-West-1", "lon": 80.193228, "lat": 12.938634}, "geometry": {"type": "Polygon", "coordinates": [[[80.19345939608976, 12.938408495329918], [80.19345794321943, 12.938860588231115], [80.19299702309483, 12.938859162751124], [80.19299847679524, 12.9384070699014], [80.19345939608976, 12.938408495329918]]]}}, {"type": "Feature", "id": "C041", "properties": {"id": "C041", "parcel": "Pallikaranai-Control-Builtup", "lon": 80.198304, "lat": 12.943234}, "geometry": {"type": "Polygon", "coordinates": [[[80.1985351573917, 12.94300847596524], [80.19853371313307, 12.943460569272768], [80.19807278398255, 12.943459152266028], [80.19807422907158, 12.943007059009654], [80.1985351573917, 12.94300847596524]]]}}]}