{
 "type": "FeatureCollection",
 "features": [
  {
   "type": "Feature",
   "properties": {
    "parcel": "Pallikaranai-Control-Builtup",
    "area_m2": 1901.2,
    "overlap_area_m2": 1901.2,
    "source": "radar",
    "d_sigma_vv_mean_db": 3.477,
    "d_ndvi_mean": 0.015
   },
   "geometry": {
    "type": "MultiPolygon",
    "coordinates": [
     [
      [
       [
        80.19765230962047,
        12.943191560095936
       ],
       [
        80.19765375543622,
        12.942739466877034
       ],
       [
        80.19728501325098,
        12.942738332154695
       ],
       [
        80.19728385607134,
        12.943100006698307
       ],
       [
        80.1973760417472,
        12.943100290435956
       ],
       [
        80.19737575248001,
        12.94319070907233
       ],
       [
        80.19765230962047,
        12.943191560095936
       ]
      ]
     ]
    ]
   }
  },
  {
   "type": "Feature",
   "properties": {
    "parcel": "Pallikaranai-West-1",
    "area_m2": 2701.7,
    "overlap_area_m2": 2701.7,
    "source": "radar",
    "d_sigma_vv_mean_db": 7.376,
    "d_ndvi_mean": -0.104
   },
   "geometry": {
    "type": "MultiPolygon",
    "coordinates": [
     [
      [
       [
        80.19526273184489,
        12.940923709897405
       ],
       [
        80.19526302182102,
        12.940833291292408
       ],
       [
        80.19535520661825,
        12.940833575695441
       ],
       [
        80.19535636636789,
        12.940471901260919
       ],
       [
        80.19517199704129,
        12.940471332438714
       ],
       [
        80.19517228703963,
        12.940380913832612
       ],
       [
        80.19489573316585,
        12.940380060361175
       ],
       [
        80.19489399254513,
        12.940922571951328
       ],
       [
        80.19526273184489,
        12.940923709897405
       ]
      ]
     ]
    ]
   }
  },
  {
   "type": "Feature",
   "properties": {
    "parcel": "Pallikaranai-West-1",
    "area_m2": 1500.9,
    "overlap_area_m2": 1500.9,
    "source": "radar",
    "d_sigma_vv_mean_db": 5.27,
    "d_ndvi_mean": -0.199
   },
   "geometry": {
    "type": "MultiPolygon",
    "coordinates": [
     [
      [
       [
        80.19554218500878,
        12.940020376874935
       ],
       [
        80.19554247486327,
        12.939929958257457
       ],
       [
        80.19563465933503,
        12.939930242542243
       ],
       [
        80.1956355287857,
        12.939658986679861
       ],
       [
        80.19526679131035,
        12.93965784936994
       ],
       [
        80.19526563150708,
        12.940019523819
       ],
       [
        80.19554218500878,
        12.940020376874935
       ]
      ]
     ]
    ]
   }
  },
  {
   "type": "Feature",
   "properties": {
    "parcel": "Pallikaranai-West-1",
    "area_m2": 6003.7,
    "overlap_area_m2": 6003.7,
    "source": "radar",
    "d_sigma_vv_mean_db": 5.35,
    "d_ndvi_mean": -0.028
   },
   "geometry": {
    "type": "MultiPolygon",
    "coordinates": [
     [
      [
       [
        80.19471252456312,
        12.940017816827721
       ],
       [
        80.19471281471647,
        12.939927398228733
       ],
       [
        80.19480499916841,
        12.93992768280665
       ],
       [
        80.19480615962699,
        12.939566008396152
       ],
       [
        80.19434523805337,
        12.939564585221971
       ],
       [
        80.194344947776,
        12.939655003815266
       ],
       [
        80.19360747310714,
        12.939652725026509
       ],
       [
        80.19360631091304,
        12.940014399327538
       ],
       [
        80.19397504876115,
        12.940015539015395
       ],
       [
        80.19397475833993,
        12.940105957597304
       ],
       [
        80.19471252456312,
        12.940017816827721
       ]
      ]
     ]
    ]
   }
  },
  {
   "type": "Feature",
   "properties": {
    "parcel": "Pallikaranai-West-1",
    "area_m2": 1500.9,
    "overlap_area_m2": 1500.9,
    "source": "radar",
    "d_sigma_vv_mean_db": 3.989,
    "d_ndvi_mean": -0.103
   },
   "geometry": {
    "type": "MultiPolygon",
    "coordinates": [
     [
      [
       [
        80.19600397661439,
        12.9397505420983
       ],
       [
        80.19600542500176,
        12.939298448943802
       ],
       [
        80.19572887226401,
        12.93929759642568
       ],
       [
        80.19572742337856,
        12.939749689549396
       ],
       [
        80.19600397661439,
        12.9397505420983
       ]
      ]
     ]
    ]
   }
  },
  {
   "type": "Feature",
   "properties": {
    "parcel": "Pallikaranai-West-1",
    "area_m2": 2462.2,
    "overlap_area_m2": 2462.2,
    "source": "radar",
    "d_sigma_vv_mean_db": 5.194,
    "d_ndvi_mean": -0.101
   },
   "geometry": {
    "type": "MultiPolygon",
    "coordinates": [
     [
      [
       [
        80.1975731357665,
        12.939122437007196
       ],
       [
        80.1972043989035,
        12.9391213024823
       ],
       [
        80.19711163615055,
        12.939301856085091
       ],
       [
        80.19701945187607,
        12.939301572335777
       ],
       [
        80.197018583946,
        12.939572828298042
       ],
       [
        80.19747921311274,
        12.939574245849066
       ],
       [
        80.1974795100099,
        12.939572942298755
       ],
       [
        80.19747979498462,
        12.939483828085947
       ],
       [
        80.19749979267941,
        12.939483889608457
       ],
       [
        80.19757300788783,
        12.939162431734836
       ],
       [
        80.1975731357665,
        12.939122437007196
       ]
      ]
     ]
    ]
   }
  }
 ]
}