{
 "type": "FeatureCollection",
 "features": [
  {
   "type": "Feature",
   "properties": {
    "parcel": "Pallikaranai-West-1",
    "area_m2": 3101.9,
    "overlap_area_m2": 3101.9,
    "source": "optical",
    "d_bui_mean": 0.336,
    "d_ndvi_mean": -0.239
   },
   "geometry": {
    "type": "MultiPolygon",
    "coordinates": [
     [
      [
       [
        80.19599876196477,
        12.941378077323671
       ],
       [
        80.1959996311225,
        12.941106821466995
       ],
       [
        80.19609181603697,
        12.941107105615604
       ],
       [
        80.1960921057186,
        12.941016686993393
       ],
       [
        80.19627647548769,
        12.941017255188783
       ],
       [
        80.19627734432015,
        12.940745999306062
       ],
       [
        80.19581642041207,
        12.940744578604068
       ],
       [
        80.19581555108147,
        12.941015834456012
       ],
       [
        80.19563118133436,
        12.941015265934888
       ],
       [
        80.19563031178473,
        12.941286521768832
       ],
       [
        80.1957224967568,
        12.941286806051838
       ],
       [
        80.19572220693573,
        12.941377224663938
       ],
       [
        80.19599876196477,
        12.941378077323671
       ]
      ]
     ]
    ]
   }
  },
  {
   "type": "Feature",
   "properties": {
    "parcel": "Pallikaranai-West-1",
    "area_m2": 900.6,
    "overlap_area_m2": 900.6,
    "source": "optical",
    "d_bui_mean": 0.25,
    "d_ndvi_mean": -0.172
   },
   "geometry": {
    "type": "MultiPolygon",
    "coordinates": [
     [
      [
       [
        80.19544797123048,
        12.940653022845796
       ],
       [
        80.1954488409332,
        12.940381767010905
       ],
       [
        80.19517228703963,
        12.940380913832612
       ],
       [
        80.19517141703803,
        12.940652169649022
       ],
       [
        80.19544797123048,
        12.940653022845796
       ]
      ]
     ]
    ]
   }
  },
  {
   "type": "Feature",
   "properties": {
    "parcel": "Pallikaranai-West-1",
    "area_m2": 3302.0,
    "overlap_area_m2": 3302.0,
    "source": "optical",
    "d_bui_mean": 0.399,
    "d_ndvi_mean": -0.246
   },
   "geometry": {
    "type": "MultiPolygon",
    "coordinates": [
     [
      [
       [
        80.19563465933503,
        12.939930242542243
       ],
       [
        80.1956355287857,
        12.939658986679861
       ],
       [
        80.19554334441357,
        12.939658702401237
       ],
       [
        80.19554450378315,
        12.939297027917423
       ],
       [
        80.19545231954605,
        12.93929674361444
       ],
       [
        80.19545260941615,
        12.939206324993961
       ],
       [
        80.1951760568176,
        12.939205471895766
       ],
       [
        80.19508213257194,
        12.93974769912867
       ],
       [
        80.19535868576158,
        12.939748552361543
       ],
       [
        80.19535810592636,
        12.939929389590178
       ],
       [
        80.19563465933503,
        12.939930242542243
       ]
      ]
     ]
    ]
   }
  },
  {
   "type": "Feature",
   "properties": {
    "parcel": "Pallikaranai-West-1",
    "area_m2": 1200.7,
    "overlap_area_m2": 1200.7,
    "source": "optical",
    "d_bui_mean": 0.264,
    "d_ndvi_mean": -0.191
   },
   "geometry": {
    "type": "MultiPolygon",
    "coordinates": [
     [
      [
       [
        80.19738818898718,
        12.939302707137614
       ],
       [
        80.19738934566526,
        12.938941032479626
       ],
       [
        80.19711279322709,
        12.93894018145169
       ],
       [
        80.19711163615055,
        12.939301856085091
       ],
       [
        80.19738818898718,
        12.939302707137614
       ]
      ]
     ]
    ]
   }
  },
  {
   "type": "Feature",
   "properties": {
    "parcel": "Pallikaranai-West-1",
    "area_m2": 900.6,
    "overlap_area_m2": 900.6,
    "source": "optical",
    "d_bui_mean": 0.379,
    "d_ndvi_mean": -0.211
   },
   "geometry": {
    "type": "MultiPolygon",
    "coordinates": [
     [
      [
       [
        80.19508503261217,
        12.938843513009186
       ],
       [
        80.19508590258131,
        12.938572257161017
       ],
       [
        80.19480935070644,
        12.938571403715144
       ],
       [
        80.19480848043847,
        12.938842659544823
       ],
       [
        80.19508503261217,
        12.938843513009186
       ]
      ]
     ]
    ]
   }
  }
 ]
}