{"type": "FeatureCollection", "features": [{"type": "Feature", "properties": {"name": "Wetland (unnamed)", "osm_id": 84106295, "wetland": "marsh", "source": "OpenStreetMap"}, "geometry": {"type": "Polygon", "coordinates": [[[80.2426348, 12.9231071], [80.2424858, 12.9232659], [80.2414558, 12.924228], [80.2409983, 12.924278], [80.2409154, 12.9243339], [80.2407581, 12.9243603], [80.240486, 12.9242306], [80.2402639, 12.9240743], [80.2399511, 12.9237], [80.2396579, 12.9233932], [80.2394517, 12.9226835], [80.2392399, 12.9222357], [80.2389382, 12.9215033], [80.2389318, 12.9214793], [80.2385376, 12.9208399], [80.2378608, 12.9201519], [80.2370012, 12.9196603], [80.2359725, 12.9195495], [80.234555, 12.9196854], [80.2336619, 12.9200257], [80.23295, 12.9204132], [80.2323663, 12.9207144], [80.2320445, 12.9209978], [80.2319801, 12.9213544], [80.2319801, 12.9224043], [80.2307933, 12.9230594], [80.2307822, 12.9234525], [80.229163, 12.9236856], [80.2285318, 12.9238514], [80.2270926, 12.9242864], [80.2263997, 12.9251668], [80.2260566, 12.9259274], [80.2255098, 12.9269697], [80.2251473, 12.9271448], [80.2241333, 12.9285923], [80.2233608, 12.92831], [80.2215476, 12.9285714], [80.2210756, 12.9298158], [80.2209146, 12.9311124], [80.2212687, 12.9327123], [80.2221163, 12.9347932], [80.2226849, 12.9373445], [80.2237148, 12.9388712], [80.2248199, 12.9399482], [80.2253778, 12.9396659], [80.2247448, 12.9379197], [80.2236558, 12.9370309], [80.2237309, 12.9363355], [80.2238811, 12.9361002], [80.2244283, 12.9367224], [80.2250506, 12.9381288], [80.2253939, 12.9383484], [80.2255387, 12.9376007], [80.2261288, 12.9381758], [80.226338, 12.9390908], [80.225925, 12.9407429], [80.2262898, 12.9419924], [80.2265687, 12.9430851], [80.2262415, 12.9435556], [80.2247502, 12.9441725], [80.2231784, 12.9444235], [80.2206142, 12.9451241], [80.2188279, 12.9452548], [80.2174002, 12.9464912], [80.2172813, 12.9467586], [80.2169739, 12.9472079], [80.2163784, 12.9475075], [80.2158789, 12.947676], [80.215149, 12.9477321], [80.2145919, 12.9476385], [80.2141309, 12.947676], [80.2140012, 12.947872], [80.2140768, 12.948103], [80.214338, 12.9483336], [80.2212384, 12.9490613], [80.222206, 12.9477759], [80.2231156, 12.948621], [80.2237354, 12.9471343], [80.2246425, 12.9473084], [80.2251572, 12.9477412], [80.2265518, 12.9476649], [80.2274208, 12.9470098], [80.2278499, 12.9454555], [80.227821, 12.9440712], [80.227303, 12.9426104], [80.226622, 12.9417399], [80.2263356, 12.9408407], [80.2267524, 12.9389947], [80.2271187, 12.938326], [80.2274816, 12.9382216], [80.227416, 12.9373458], [80.2279542, 12.9370285], [80.2281804, 12.9364829], [80.2274624, 12.9355818], [80.2274624, 12.9342338], [80.2272703, 12.9326049], [80.2270013, 12.931182], [80.2267132, 12.9298153], [80.2265472, 12.929145], [80.2264857, 12.9289533], [80.226498, 12.9286298], [80.2265718, 12.9282703], [80.2265103, 12.927767], [80.2263997, 12.9272278], [80.2265913, 12.9266865], [80.2267621, 12.9260842], [80.226852, 12.9258053], [80.2270647, 12.9255687], [80.2271446, 12.9253603], [80.2273229, 12.925079], [80.2275268, 12.9249405], [80.2287036, 12.9246553], [80.2298836, 12.9244672], [80.2301332, 12.924556], [80.2303774, 12.9245217], [80.2304659, 12.9243567], [80.2305787, 12.9243091], [80.2305789, 12.9242453], [80.2309437, 12.9242789], [80.2310049, 12.9247651], [80.2313544, 12.9247249], [80.2316932, 12.9245591], [80.2320476, 12.9241958], [80.2327526, 12.9232409], [80.2341516, 12.9211076], [80.2349597, 12.9206036], [80.2360669, 12.9204363], [80.2366949, 12.9206897], [80.237045, 12.9208077], [80.2375017, 12.9212265], [80.2377003, 12.9214155], [80.2379448, 12.9215421], [80.2390968, 12.9233643], [80.2394837, 12.9240866], [80.2398892, 12.9244185], [80.2404186, 12.9247446], [80.2406288, 12.9248212], [80.2409357, 12.9247858], [80.2414457, 12.9246591], [80.241862, 12.9245413], [80.2423375, 12.92411], [80.2430064, 12.9234347], [80.24312, 12.9233152], [80.2432134, 12.9232821], [80.2426348, 12.9231071]]]}}, {"type": "Feature", "properties": {"name": "Wetland (unnamed)", "osm_id": 131961856, "wetland": null, "source": "OpenStreetMap"}, "geometry": {"type": "Polygon", "coordinates": [[[80.249093, 12.9632827], [80.2505654, 12.9630214], [80.2503773, 12.9620073], [80.2488285, 12.9623057], [80.249093, 12.9632827]]]}}, {"type": "Feature", "properties": {"name": "Wetland (unnamed)", "osm_id": 132192002, "wetland": null, "source": "OpenStreetMap"}, "geometry": {"type": "Polygon", "coordinates": [[[80.2388744, 12.9748107], [80.2387727, 12.9750161], [80.238759, 12.975174], [80.2387732, 12.9754006], [80.2384703, 12.9755939], [80.2384431, 12.9757758], [80.2384979, 12.9760317], [80.2384859, 12.9760963], [80.2385677, 12.9764593], [80.2405073, 12.976464], [80.2406557, 12.9753528], [80.2403745, 12.9752651], [80.2401614, 12.9751103], [80.2398558, 12.9748625], [80.2396409, 12.9747733], [80.2395724, 12.9747038], [80.2394903, 12.9747081], [80.2394196, 12.9747076], [80.2393622, 12.974703], [80.2392316, 12.9746893], [80.2391313, 12.9746934], [80.2389509, 12.974697], [80.2388744, 12.9748107]]]}}, {"type": "Feature", "properties": {"name": "Wetland (unnamed)", "osm_id": 132462273, "wetland": "marsh", "source": "OpenStreetMap"}, "geometry": {"type": "Polygon", "coordinates": [[[80.2430386, 12.9188137], [80.2436613, 12.9181754], [80.2434908, 12.9173932], [80.2434039, 12.9155693], [80.2442724, 12.9156411], [80.2456225, 12.9149456], [80.2457021, 12.9123045], [80.2449129, 12.9089995], [80.24286, 12.9089962], [80.2430849, 12.9113877], [80.2434364, 12.9114905], [80.2435724, 12.9125157], [80.2435577, 12.9133396], [80.2422307, 12.913483], [80.2427169, 12.9171074], [80.2424715, 12.916948], [80.2425942, 12.9177651], [80.2429213, 12.9177252], [80.2430386, 12.9188137]]]}}, {"type": "Feature", "properties": {"name": "Wetland (unnamed)", "osm_id": 138294774, "wetland": "marsh", "source": "OpenStreetMap"}, "geometry": {"type": "Polygon", "coordinates": [[[80.2394348, 12.8995585], [80.2403804, 12.9051798], [80.2408314, 12.9049462], [80.2420792, 12.9047444], [80.2441438, 12.9044912], [80.2429212, 12.9026199], [80.2419387, 12.9005062], [80.2414859, 12.8990911], [80.2394348, 12.8995585]]]}}, {"type": "Feature", "properties": {"name": "Wetland (unnamed)", "osm_id": 384312610, "wetland": null, "source": "OpenStreetMap"}, "geometry": {"type": "Polygon", "coordinates": [[[80.2057982, 12.94487], [80.2061462, 12.9448247], [80.2061545, 12.9448753], [80.2062117, 12.9450744], [80.2062325, 12.9451561], [80.2062476, 12.945338], [80.2064061, 12.9453423], [80.2064607, 12.9454487], [80.2069593, 12.9455015], [80.2068828, 12.9451366], [80.2072612, 12.9449841], [80.2073704, 12.9448954], [80.207401, 12.9447415], [80.2074426, 12.9446878], [80.2074824, 12.9446363], [80.2074062, 12.9440776], [80.2070568, 12.9441223], [80.2070508, 12.9443092], [80.2067032, 12.9443793], [80.2066613, 12.944169], [80.2064695, 12.9441749], [80.2065054, 12.9444494], [80.205954, 12.9445838], [80.2058821, 12.9446772], [80.2057802, 12.9447006], [80.2057982, 12.94487]]]}}, {"type": "Feature", "properties": {"name": "Swamp", "osm_id": 479690975, "wetland": "swamp", "source": "OpenStreetMap"}, "geometry": {"type": "Polygon", "coordinates": [[[80.2153192, 12.9407183], [80.2158943, 12.9405717], [80.2160607, 12.9407045], [80.2164783, 12.9405976], [80.2163756, 12.9402733], [80.2160119, 12.9403911], [80.2160642, 12.9405493], [80.2159704, 12.9405976], [80.2158766, 12.9404337], [80.2152813, 12.9406447], [80.2153192, 12.9407183]]]}}, {"type": "Feature", "properties": {"name": "Wetland (unnamed)", "osm_id": 754068463, "wetland": null, "source": "OpenStreetMap"}, "geometry": {"type": "Polygon", "coordinates": [[[80.1827035, 12.9169995], [80.1826544, 12.9169863], [80.1825165, 12.9169898], [80.1823591, 12.917026], [80.1821982, 12.9170346], [80.182039, 12.917038], [80.1819205, 12.9170829], [80.1818551, 12.9170656], [80.1817772, 12.9170639], [80.1816959, 12.9171122], [80.1815579, 12.9171535], [80.1814678, 12.9171587], [80.1814059, 12.917169], [80.1812361, 12.9171346], [80.1810807, 12.9170863], [80.1810153, 12.9170501], [80.1810082, 12.917007], [80.1809976, 12.9169329], [80.1809887, 12.9168036], [80.1809675, 12.916776], [80.180872, 12.9167519], [80.1806244, 12.9167105], [80.1806969, 12.9170622], [80.1807677, 12.9170536], [80.1808083, 12.9170604], [80.1808136, 12.9170984], [80.1808402, 12.9171449], [80.180872, 12.9171863], [80.1809516, 12.9172173], [80.1812894, 12.9172742], [80.1812752, 12.9174845], [80.1813884, 12.9174862], [80.1814061, 12.9175534], [80.1814415, 12.9175896], [80.1814804, 12.917631], [80.181491, 12.9176827], [80.1814963, 12.9177207], [80.1814379, 12.9177908], [80.1814096, 12.9178028], [80.1813937, 12.9178218], [80.1813955, 12.917877], [80.1817244, 12.917889], [80.1817598, 12.9180493], [80.1817722, 12.9180941], [80.1817828, 12.9181252], [80.1817987, 12.9181424], [80.1818235, 12.9181614], [80.181873, 12.9181648], [80.1819172, 12.9181562], [80.1819579, 12.9181562], [80.1819756, 12.9181752], [80.1819773, 12.9182183], [80.1819826, 12.9182579], [80.1819933, 12.9182786], [80.182039, 12.9183166], [80.1820749, 12.9183367], [80.1821186, 12.9183488], [80.1821659, 12.9183556], [80.1821766, 12.9183374], [80.1821277, 12.9183233], [80.1820842, 12.9182816], [80.1820284, 12.9182188], [80.1820203, 12.9181642], [80.1820416, 12.9181239], [80.1820694, 12.91798], [80.1820773, 12.9178447], [80.1820631, 12.9177319], [80.1820811, 12.9175586], [80.182109, 12.9175173], [80.1821584, 12.9174877], [80.1821898, 12.9174668], [80.182214, 12.9174386], [80.1822349, 12.9174349], [80.182257, 12.917425], [80.1823009, 12.9173707], [80.1823491, 12.917312], [80.1824125, 12.9172865], [80.1824524, 12.9172534], [80.1824647, 12.9172223], [80.1825008, 12.9171943], [80.1825163, 12.9171433], [80.1825479, 12.9171109], [80.1826176, 12.9170918], [80.1826317, 12.9170623], [80.1826346, 12.9170304], [80.1827035, 12.9169995]]]}}, {"type": "Feature", "properties": {"name": "Wetland (unnamed)", "osm_id": 886863070, "wetland": "marsh", "source": "OpenStreetMap"}, "geometry": {"type": "Polygon", "coordinates": [[[80.1921577, 12.9601312], [80.192268, 12.9604934], [80.1923938, 12.9604561], [80.1923186, 12.9601742], [80.1922978, 12.9600907], [80.1923549, 12.9600806], [80.1927389, 12.9600528], [80.1927571, 12.9597569], [80.1924457, 12.9597493], [80.1924405, 12.9596709], [80.1924224, 12.9596052], [80.1922433, 12.9595824], [80.1921992, 12.9595521], [80.1919501, 12.9595546], [80.1919968, 12.9597544], [80.1920798, 12.9599744], [80.1921577, 12.9601312]]]}}, {"type": "Feature", "properties": {"name": "Wetland (unnamed)", "osm_id": 1232617259, "wetland": "marsh", "source": "OpenStreetMap"}, "geometry": {"type": "Polygon", "coordinates": [[[80.2390552, 12.9116978], [80.2393126, 12.9114766], [80.2394897, 12.9110949], [80.2394682, 12.9107968], [80.2393824, 12.9102792], [80.2386367, 12.9099655], [80.2382451, 12.9096256], [80.2382129, 12.9089197], [80.2386206, 12.9083811], [80.2388942, 12.9077484], [80.2390927, 12.9072883], [80.2391088, 12.9069484], [80.2386689, 12.9067602], [80.2383202, 12.9062791], [80.2379179, 12.9054477], [80.2379125, 12.9049405], [80.2383578, 12.9044019], [80.2384382, 12.9040621], [80.2382666, 12.9038424], [80.238331, 12.9035705], [80.2380145, 12.9031261], [80.2374834, 12.902577], [80.2366013, 12.9025355], [80.2365587, 12.9052536], [80.2373172, 12.9087239], [80.2372772, 12.9117747], [80.2390552, 12.9116978]]]}}, {"type": "Feature", "properties": {"name": "Pallikaranai Sadhuppunilam", "osm_id": 1353938223, "wetland": "marsh", "source": "OpenStreetMap"}, "geometry": {"type": "Polygon", "coordinates": [[[80.2338907, 12.9640714], [80.2327312, 12.9640481], [80.2328604, 12.9653848], [80.2331106, 12.9662217], [80.2338617, 12.9660665], [80.2336502, 12.9652456], [80.2339642, 12.9650973], [80.2338907, 12.9640714]]]}}, {"type": "Feature", "properties": {"name": "Wetland (unnamed)", "osm_id": 1354435753, "wetland": null, "source": "OpenStreetMap"}, "geometry": {"type": "Polygon", "coordinates": [[[80.2085052, 12.9496755], [80.208604, 12.9500464], [80.2093961, 12.9498895], [80.2100953, 12.949751], [80.2099965, 12.9494353], [80.2085052, 12.9496755]]]}}, {"type": "Feature", "properties": {"name": "Wetland (unnamed)", "osm_id": 1354435754, "wetland": null, "source": "OpenStreetMap"}, "geometry": {"type": "Polygon", "coordinates": [[[80.2065159, 12.9494687], [80.2083955, 12.9492208], [80.2083204, 12.9489098], [80.2064502, 12.9491288], [80.2065159, 12.9494687]]]}}, {"type": "Feature", "properties": {"name": "Wetland (unnamed)", "osm_id": 1354435776, "wetland": null, "source": "OpenStreetMap"}, "geometry": {"type": "Polygon", "coordinates": [[[80.2091552, 12.9427428], [80.2091955, 12.9428539], [80.2093229, 12.9428395], [80.210373, 12.9426186], [80.2103408, 12.942497], [80.2097909, 12.9425951], [80.2096876, 12.9421807], [80.2093671, 12.9422593], [80.2094637, 12.9426709], [80.2091552, 12.9427428]]]}}, {"type": "Feature", "properties": {"name": "Sholinganallur Sadhuppunilam", "osm_id": 15046107, "wetland": "marsh", "source": "OpenStreetMap"}, "geometry": {"type": "MultiPolygon", "coordinates": [[[[80.2243266, 12.8945642], [80.2242891, 12.8942295], [80.2245251, 12.8937694], [80.2249757, 12.8931366], [80.2247772, 12.8923732], [80.2249972, 12.8923261], [80.2250347, 12.8925301], [80.2253566, 12.8925693], [80.2253378, 12.892449], [80.2256355, 12.8924255], [80.2262873, 12.8926163], [80.2266226, 12.891811], [80.2263114, 12.8917012], [80.2263436, 12.8914005], [80.2271724, 12.8916672], [80.2271188, 12.8904593], [80.2270973, 12.8888278], [80.2266306, 12.8888173], [80.2257455, 12.8887807], [80.2253539, 12.8888696], [80.2250267, 12.8889794], [80.2246619, 12.8894134], [80.2242917, 12.8899154], [80.2240825, 12.8906685], [80.22434, 12.8919653], [80.2242596, 12.8919339], [80.2240074, 12.890658], [80.2242542, 12.8898684], [80.2246458, 12.8892827], [80.224458, 12.88922], [80.2244044, 12.8889219], [80.2242381, 12.8888591], [80.224222, 12.8884382], [80.2243427, 12.8873871], [80.2239967, 12.8874002], [80.2239833, 12.886791], [80.2239082, 12.8863648], [80.2235059, 12.8864563], [80.2234978, 12.8865112], [80.223361, 12.8865399], [80.2234227, 12.8881584], [80.2223552, 12.8883205], [80.2224034, 12.8896697], [80.2227629, 12.8896906], [80.2227575, 12.8898527], [80.2216793, 12.8898684], [80.2215076, 12.8900723], [80.221175, 12.8902187], [80.2214271, 12.8909665], [80.2215934, 12.8909195], [80.2215344, 12.8905534], [80.2217866, 12.8903808], [80.2221567, 12.8908462], [80.2225322, 12.891479], [80.2229506, 12.8913901], [80.2232028, 12.8914581], [80.2236748, 12.8913796], [80.2237124, 12.8915836], [80.2239377, 12.8915574], [80.2237982, 12.8921379], [80.2224732, 12.8923209], [80.2225483, 12.8926817], [80.2230687, 12.8926294], [80.2230579, 12.8927549], [80.2234978, 12.8926922], [80.2235139, 12.8928752], [80.2206976, 12.8931707], [80.220829, 12.8938949], [80.2234817, 12.8935576], [80.2234254, 12.8945119], [80.2239833, 12.8944596], [80.2243266, 12.8945642]]], [[[80.2264026, 12.895563], [80.225319, 12.895427], [80.2253083, 12.8951865], [80.2239994, 12.8946531], [80.2234415, 12.8946688], [80.223522, 12.8956885], [80.2251259, 12.895929], [80.226526, 12.8962009], [80.2264026, 12.895563]]], [[[80.2023057, 12.8996965], [80.2022226, 12.9002324], [80.2024774, 12.9002612], [80.2024855, 12.9004782], [80.2013214, 12.9005436], [80.2024613, 12.9037515], [80.2033518, 12.9034875], [80.2033867, 12.9035737], [80.2036656, 12.9035267], [80.2034537, 12.902643], [80.2036737, 12.9025907], [80.2036254, 12.9023606], [80.2042101, 12.9021828], [80.2044247, 12.902094], [80.2050295, 12.9020351], [80.2049955, 12.9018594], [80.2053417, 12.9017924], [80.2052949, 12.9014922], [80.2058597, 12.9013959], [80.2057747, 12.901669], [80.2059795, 12.9017015], [80.2058459, 12.9020352], [80.2064634, 12.9019401], [80.2063894, 12.9012375], [80.2059303, 12.901265], [80.2063317, 12.9002952], [80.2051194, 12.9003788], [80.2049987, 12.8993252], [80.2049638, 12.8974166], [80.2049585, 12.8959629], [80.2061601, 12.8957746], [80.2059724, 12.8931287], [80.206879, 12.8930502], [80.2068579, 12.8927934], [80.2077586, 12.8926529], [80.207587, 12.8904931], [80.2079679, 12.8902892], [80.2080054, 12.8899598], [80.2080805, 12.8899284], [80.2082522, 12.8899101], [80.2083273, 12.8898448], [80.2083541, 12.8897323], [80.2083112, 12.8894918], [80.2079733, 12.8895441], [80.2078391, 12.8887806], [80.2055968, 12.889178], [80.205629, 12.8897323], [80.2057765, 12.8905899], [80.2058141, 12.8912279], [80.2049558, 12.8914527], [80.2049665, 12.8916462], [80.2041538, 12.8917822], [80.2039821, 12.8918449], [80.2041109, 12.8923679], [80.2050926, 12.8922031], [80.2051462, 12.8925273], [80.2042101, 12.8926868], [80.204245, 12.892998], [80.2047063, 12.8929221], [80.2048217, 12.8933666], [80.2039124, 12.8935941], [80.2037783, 12.8929927], [80.2031185, 12.8931156], [80.2032499, 12.8938137], [80.2028368, 12.8939235], [80.2029012, 12.8946085], [80.203561, 12.894551], [80.2035932, 12.8949798], [80.2025471, 12.8950687], [80.202574, 12.8960675], [80.2021019, 12.8960884], [80.2021019, 12.8951628], [80.2016727, 12.8951053], [80.2015708, 12.8954661], [80.2003424, 12.8953406], [80.2002995, 12.8949275], [80.1999561, 12.8947602], [80.1999561, 12.894619], [80.1994081, 12.8946269], [80.1992266, 12.8946295], [80.1993607, 12.8961407], [80.1999293, 12.896193], [80.2000205, 12.8968205], [80.2001814, 12.8968518], [80.2001868, 12.8970505], [80.1998274, 12.897129], [80.1998918, 12.8979813], [80.2010129, 12.8977983], [80.2011685, 12.8982951], [80.2006374, 12.8984833], [80.2008574, 12.8990533], [80.2016352, 12.8989173], [80.2015708, 12.8979133], [80.2025042, 12.8980441], [80.2024399, 12.8983944], [80.2021716, 12.8983735], [80.2021341, 12.8989592], [80.2019249, 12.8989592], [80.2019088, 12.8993147], [80.2016245, 12.89932], [80.2016164, 12.8997043], [80.2023057, 12.8996965]]], [[[80.2060219, 12.9050824], [80.2060138, 12.904753], [80.2064484, 12.9046328], [80.2063437, 12.9044602], [80.2059173, 12.9045752], [80.2059468, 12.9047216], [80.2058073, 12.9047582], [80.2057644, 12.9045386], [80.2056276, 12.9045595], [80.2056008, 12.9044184], [80.2057966, 12.9043661], [80.206223, 12.9042589], [80.2064001, 12.9043086], [80.2065369, 12.9046014], [80.2066576, 12.9049805], [80.2070223, 12.9048445], [80.2070867, 12.9050458], [80.20743, 12.9049909], [80.2074354, 12.904902], [80.2075749, 12.904821], [80.2075212, 12.9045543], [80.20765, 12.9045099], [80.2074917, 12.9036183], [80.2071377, 12.9036863], [80.2071645, 12.9038615], [80.2067193, 12.9039373], [80.2066924, 12.9037595], [80.2062525, 12.9038641], [80.2060353, 12.9038406], [80.2059414, 12.9036628], [80.2056812, 12.9037098], [80.2056356, 12.9034745], [80.2058288, 12.9034196], [80.2057268, 12.9032105], [80.2057054, 12.9030693], [80.2055552, 12.9028131], [80.2054318, 12.9030327], [80.2053862, 12.9032706], [80.2047156, 12.903336], [80.2047425, 12.903804], [80.2047907, 12.9051739], [80.2057268, 12.9050615], [80.2057376, 12.9051217], [80.2060219, 12.9050824]]], [[[80.2058518, 12.9030249], [80.2057821, 12.9030719], [80.2060235, 12.9035216], [80.2063936, 12.903438], [80.2063668, 12.9032968], [80.2065438, 12.9032602], [80.206576, 12.9034641], [80.2067477, 12.9034537], [80.2067584, 12.9036367], [80.207445, 12.9034798], [80.2073753, 12.9029987], [80.2063453, 12.9031242], [80.2063292, 12.9029726], [80.2059913, 12.9030353], [80.2058518, 12.9030249]]], [[[80.2058947, 12.9029098], [80.2071983, 12.9026955], [80.2070695, 12.9021307], [80.2065438, 12.9022144], [80.2065009, 12.9020314], [80.2058089, 12.9021516], [80.2056265, 12.9027373], [80.2058947, 12.9029098]]]]}}, {"type": "Feature", "properties": {"name": "Pallikaranai Marsh", "osm_id": 15046539, "wetland": "marsh", "source": "OpenStreetMap"}, "geometry": {"type": "MultiPolygon", "coordinates": [[[[80.2296769, 12.9575774], [80.2295535, 12.9573212], [80.2291565, 12.9575356], [80.2287703, 12.9578597], [80.2283626, 12.9577551], [80.2281266, 12.9578911], [80.227853, 12.9579068], [80.2275687, 12.9580061], [80.2272629, 12.9579852], [80.2268445, 12.9581211], [80.2264153, 12.958372], [80.2259808, 12.9583041], [80.2253478, 12.9586177], [80.2246558, 12.9589419], [80.2238672, 12.9589], [80.2235239, 12.9585811], [80.2234059, 12.9589], [80.2231323, 12.959036], [80.2226227, 12.9591144], [80.2217858, 12.9588164], [80.2213674, 12.958095], [80.2211421, 12.9576245], [80.2207773, 12.9573003], [80.2202033, 12.9570128], [80.2198117, 12.9568037], [80.2194255, 12.9564691], [80.2194201, 12.9560561], [80.2195703, 12.9556588], [80.2194201, 12.9550628], [80.219522, 12.9548328], [80.2195006, 12.9545975], [80.2193504, 12.954195], [80.2194684, 12.9537192], [80.2198224, 12.9534003], [80.2201336, 12.9532644], [80.2201443, 12.9530553], [80.2202409, 12.9529089], [80.2203321, 12.9527834], [80.2202516, 12.9526789], [80.2202301, 12.9523861], [80.2204715, 12.951994], [80.221012, 12.951632], [80.2211904, 12.9515889], [80.2215297, 12.9515274], [80.221755, 12.9514072], [80.2219092, 12.9513876], [80.2223142, 12.9514804], [80.2225274, 12.9516032], [80.2227165, 12.9514007], [80.2229848, 12.9512438], [80.2231551, 12.9510974], [80.2234059, 12.9510321], [80.2236419, 12.9510765], [80.2240536, 12.9511876], [80.2242092, 12.9513797], [80.2242977, 12.9514203], [80.2244077, 12.951568], [80.2246799, 12.9517614], [80.224869, 12.9516738], [80.2251667, 12.9516712], [80.2253947, 12.9517496], [80.2255771, 12.9519404], [80.2255825, 12.9521077], [80.2255932, 12.9522646], [80.2256817, 12.9521992], [80.2257944, 12.952079], [80.2260545, 12.9519535], [80.2263764, 12.9519823], [80.2266473, 12.9521626], [80.226878, 12.9524449], [80.2268833, 12.9526488], [80.2269799, 12.9529364], [80.2270845, 12.952939], [80.2271408, 12.9526253], [80.2270067, 12.9524345], [80.2270148, 12.9520685], [80.226886, 12.9518542], [80.2267063, 12.9518803], [80.2266339, 12.9519797], [80.2265856, 12.9519692], [80.2265642, 12.9518751], [80.2264488, 12.951781], [80.2262664, 12.9514072], [80.2264676, 12.9513863], [80.2268565, 12.951266], [80.2269692, 12.9509654], [80.2268887, 12.9508583], [80.2269102, 12.950704], [80.2268994, 12.9505446], [80.227283, 12.9501891], [80.2281789, 12.9500192], [80.2284363, 12.9500479], [80.2284215, 12.9499594], [80.2259884, 12.9497881], [80.2260291, 12.9494455], [80.231015, 12.949725], [80.2307313, 12.9453021], [80.2312176, 12.9451769], [80.2309807, 12.9441539], [80.2316294, 12.9440963], [80.2314436, 12.9431857], [80.230982, 12.9420318], [80.2308154, 12.9421536], [80.2307987, 12.9423659], [80.2303952, 12.9423041], [80.2303886, 12.9422319], [80.2306847, 12.9421354], [80.230498, 12.9417775], [80.2302737, 12.941187], [80.2299636, 12.9412997], [80.2299322, 12.9410709], [80.2301498, 12.9409723], [80.2300134, 12.9403795], [80.2298294, 12.9398769], [80.2296239, 12.939918], [80.2295965, 12.9398198], [80.2297214, 12.9397381], [80.2297088, 12.9396659], [80.2299653, 12.9396036], [80.229938, 12.9393686], [80.2297552, 12.9393636], [80.2297446, 12.939291], [80.2299172, 12.9392388], [80.2298184, 12.9389487], [80.2297464, 12.9389304], [80.2297341, 12.9388786], [80.2298287, 12.938834], [80.2294034, 12.9371445], [80.2291525, 12.9361712], [80.2287609, 12.9342001], [80.2283757, 12.9323532], [80.2282577, 12.9318408], [80.2275281, 12.9292057], [80.2284455, 12.9290227], [80.2277642, 12.926649], [80.2273887, 12.9250778], [80.2275442, 12.9249811], [80.2286734, 12.9247249], [80.2298617, 12.9245157], [80.2301299, 12.9246125], [80.2304518, 12.9245759], [80.2305054, 12.9243798], [80.2306154, 12.9243537], [80.2305108, 12.9234439], [80.2300199, 12.9235066], [80.2293574, 12.9236347], [80.227614, 12.9239406], [80.2269595, 12.9241863], [80.2258759, 12.9242282], [80.226069, 12.9247824], [80.2244758, 12.9252268], [80.2242451, 12.9244791], [80.2238964, 12.9245419], [80.2235156, 12.9244687], [80.222507, 12.9234596], [80.2219921, 12.9235276], [80.2217346, 12.922623], [80.2212518, 12.9218021], [80.2216809, 12.9215041], [80.2216595, 12.9212113], [80.2235021, 12.9205342], [80.2235987, 12.9208113], [80.2238294, 12.9207486], [80.2240359, 12.9211015], [80.2259617, 12.9202675], [80.2261039, 12.9205786], [80.226533, 12.9204349], [80.2265572, 12.9205943], [80.2270534, 12.9204087], [80.2269461, 12.9199643], [80.2263587, 12.9200715], [80.2262782, 12.9197159], [80.2260154, 12.9197368], [80.2258598, 12.9190728], [80.2257793, 12.9188846], [80.2257209, 12.9184976], [80.2254449, 12.9165241], [80.2252502, 12.9165657], [80.2251753, 12.9162377], [80.2257152, 12.9160715], [80.2263838, 12.9160831], [80.2259112, 12.9138633], [80.2255352, 12.9139623], [80.2250353, 12.9135487], [80.2245976, 12.9139755], [80.2189496, 12.9155001], [80.2136913, 12.90921], [80.2133019, 12.9034752], [80.2126995, 12.903707], [80.2128012, 12.905824], [80.2129661, 12.9092566], [80.208691, 12.9094763], [80.2089907, 12.9112542], [80.2091348, 12.9123575], [80.2100465, 12.9122193], [80.209762, 12.9142726], [80.2111925, 12.918035], [80.2114696, 12.9188274], [80.211916, 12.9208595], [80.2120748, 12.9217396], [80.2126092, 12.9229544], [80.2133409, 12.9246349], [80.2133216, 12.9252069], [80.2159136, 12.9246369], [80.2160055, 12.9247086], [80.2167374, 12.9268065], [80.2170509, 12.9273934], [80.2181842, 12.9308793], [80.2197095, 12.9305389], [80.2199026, 12.93125], [80.2198812, 12.9318303], [80.2197846, 12.9340001], [80.2200099, 12.9360496], [80.2198952, 12.9368299], [80.2197578, 12.9377644], [80.2188512, 12.938303], [80.2185538, 12.9388024], [80.2183469, 12.9391499], [80.2186098, 12.9399342], [80.2181002, 12.9402897], [80.2185293, 12.9409432], [80.2182128, 12.9415497], [80.2179285, 12.9417379], [80.2177086, 12.9411628], [80.2171069, 12.9414156], [80.2174957, 12.9425025], [80.2173856, 12.9426935], [80.2167366, 12.9428816], [80.216972, 12.9435958], [80.2165841, 12.9437242], [80.216679, 12.9444068], [80.2165337, 12.9445626], [80.2168711, 12.9456803], [80.2162166, 12.9461133], [80.2158794, 12.9462288], [80.2161429, 12.9467836], [80.2157715, 12.9470409], [80.2155011, 12.946336], [80.2148333, 12.9442055], [80.2145141, 12.9432697], [80.2144041, 12.943288], [80.2143878, 12.9432102], [80.2142995, 12.9427887], [80.214166, 12.9428159], [80.2133098, 12.94299], [80.2103245, 12.9435939], [80.2085649, 12.9439441], [80.2086355, 12.9443702], [80.208732, 12.9446918], [80.2090619, 12.9453845], [80.2122645, 12.9447467], [80.2124764, 12.9456563], [80.2132167, 12.9454995], [80.2132623, 12.9459151], [80.2130584, 12.9462994], [80.2124362, 12.9460432], [80.2125676, 12.9466627], [80.2122886, 12.9470941], [80.2124469, 12.947196], [80.2121009, 12.9476744], [80.2116403, 12.9477565], [80.2111353, 12.9470679], [80.2104647, 12.9472195], [80.2107, 12.9480521], [80.2106142, 12.9480692], [80.2106362, 12.9482899], [80.2108316, 12.9482845], [80.2108398, 12.9486073], [80.2106577, 12.9486025], [80.2104708, 12.9486109], [80.2103991, 12.9488493], [80.2133954, 12.9565391], [80.2169526, 12.9559034], [80.2170919, 12.9557902], [80.2171625, 12.9557679], [80.2172278, 12.9557614], [80.217353, 12.9558319], [80.2178518, 12.9557428], [80.2179344, 12.9558443], [80.2179991, 12.9561525], [80.2179526, 12.9562684], [80.2170168, 12.9563876], [80.2168965, 12.9565314], [80.2167642, 12.9565352], [80.2165734, 12.956474], [80.2136867, 12.9569737], [80.2163467, 12.963942], [80.2199514, 12.9625495], [80.2197131, 12.9619335], [80.2196571, 12.9606979], [80.2193958, 12.9601551], [80.2178465, 12.9587413], [80.2180459, 12.9585822], [80.2183499, 12.9588334], [80.2200541, 12.9597721], [80.2209874, 12.9614645], [80.2215129, 12.9624746], [80.222307, 12.9632718], [80.2230366, 12.963741], [80.2235785, 12.9639024], [80.2242624, 12.9639726], [80.2256585, 12.9637045], [80.2257075, 12.96396], [80.2249394, 12.9641243], [80.2242115, 12.9645186], [80.2237242, 12.9650524], [80.2234836, 12.9657327], [80.2234953, 12.9665655], [80.2237342, 12.9670438], [80.2237606, 12.9672861], [80.2240374, 12.9676186], [80.2240125, 12.9677465], [80.2236068, 12.9684941], [80.2234739, 12.9684424], [80.2234302, 12.9685094], [80.2236981, 12.9687207], [80.2239446, 12.9688629], [80.2243656, 12.9689836], [80.2239364, 12.9687123], [80.2243223, 12.9679243], [80.2243612, 12.9678332], [80.2248516, 12.9680344], [80.2265348, 12.9682794], [80.226423, 12.9680971], [80.226491, 12.9679723], [80.2267771, 12.9680572], [80.2269877, 12.9680506], [80.2270988, 12.9679123], [80.2272635, 12.9678107], [80.2275178, 12.9677956], [80.2277476, 12.9673576], [80.22836, 12.966926], [80.2280668, 12.9666065], [80.2281278, 12.9663377], [80.2283613, 12.9663114], [80.2285368, 12.9661162], [80.2281606, 12.9660971], [80.2281383, 12.9659185], [80.2284706, 12.9658999], [80.2284675, 12.9656331], [80.2295306, 12.9655312], [80.2294913, 12.965365], [80.2293216, 12.965261], [80.2294163, 12.965061], [80.2295582, 12.964969], [80.2296612, 12.9649813], [80.2297188, 12.9651095], [80.229802, 12.9651263], [80.2298463, 12.9653393], [80.2302409, 12.965305], [80.2302454, 12.9654444], [80.2305745, 12.9654243], [80.2307109, 12.9671115], [80.2331195, 12.9670801], [80.2329156, 12.9666096], [80.2327949, 12.9661208], [80.2325643, 12.9651328], [80.2324972, 12.9639801], [80.2320949, 12.9639801], [80.2321002, 12.9630548], [80.2320761, 12.9624301], [80.2318991, 12.9624327], [80.2319152, 12.9613976], [80.2318186, 12.9613819], [80.2318267, 12.9612591], [80.2319286, 12.9612199], [80.2319288, 12.9612072], [80.2319418, 12.9602017], [80.2324274, 12.9601939], [80.2323993, 12.9590307], [80.2324959, 12.9589262], [80.2324395, 12.9585916], [80.2323779, 12.958555], [80.2322652, 12.9585759], [80.2322545, 12.9585236], [80.2327641, 12.9584478], [80.2328875, 12.958406], [80.2330404, 12.9583616], [80.2331047, 12.9583956], [80.2330538, 12.9580897], [80.2332254, 12.9580662], [80.2331664, 12.957661], [80.2325361, 12.9575617], [80.2324717, 12.9576637], [80.2324181, 12.9577081], [80.2322679, 12.9577264], [80.2320533, 12.9577316], [80.2320117, 12.957678], [80.231891, 12.9575931], [80.2312661, 12.9577316], [80.2308047, 12.9577003], [80.230794, 12.9576218], [80.2305794, 12.9575905], [80.2305446, 12.9574807], [80.2305687, 12.9574336], [80.2307095, 12.9572559], [80.2296769, 12.9575774]]], [[[80.2087784, 12.8975676], [80.2089661, 12.8986919], [80.2098718, 12.9044833], [80.2099406, 12.9044576], [80.2154498, 12.902298], [80.2168607, 12.9017751], [80.2181106, 12.9015241], [80.2212649, 12.9011424], [80.2234857, 12.9009437], [80.2230727, 12.8997986], [80.2224987, 12.8984547], [80.2226167, 12.8984181], [80.2224182, 12.8977906], [80.222209, 12.8978534], [80.2220964, 12.8975579], [80.2218415, 12.8975788], [80.2197414, 12.8976834], [80.2183236, 12.8976811], [80.2181052, 12.8976808], [80.2177611, 12.8976808], [80.2173676, 12.8976808], [80.2169277, 12.8963029], [80.2143367, 12.8964023], [80.2129152, 12.8964676], [80.2129205, 12.8945825], [80.2129661, 12.8932962], [80.2129688, 12.8913561], [80.2131941, 12.8907116], [80.2131284, 12.8911025], [80.2135146, 12.8911391], [80.2135415, 12.8909979], [80.214212, 12.8911313], [80.2153439, 12.8911444], [80.2154914, 12.8915967], [80.2155236, 12.8919941], [80.2162854, 12.8920281], [80.2170605, 12.8921902], [80.2174253, 12.892232], [80.2174199, 12.8919078], [80.2156765, 12.8916255], [80.2155156, 12.8915261], [80.2153922, 12.8910868], [80.2153278, 12.8904907], [80.2153814, 12.8900044], [80.2155048, 12.8900096], [80.215596, 12.8895128], [80.2163417, 12.8888958], [80.2173395, 12.8884879], [80.2170712, 12.8871544], [80.2159233, 12.8872695], [80.2159125, 12.8862655], [80.2186162, 12.8859831], [80.21882, 12.8852091], [80.2211267, 12.8853033], [80.2227522, 12.885319], [80.2239618, 12.8851568], [80.2239404, 12.8847385], [80.2242301, 12.8847176], [80.2242515, 12.8814335], [80.2247021, 12.880032], [80.2254961, 12.8796137], [80.2261076, 12.8797706], [80.2260164, 12.8789339], [80.2260432, 12.8783638], [80.2265904, 12.8782331], [80.2266548, 12.8775899], [80.2267138, 12.8766277], [80.2241228, 12.8768839], [80.2186403, 12.8781181], [80.218415, 12.8789129], [80.2183721, 12.8808688], [80.2187262, 12.8809838], [80.2188549, 12.8816845], [80.2182219, 12.881946], [80.2181361, 12.8828455], [80.217428, 12.8828664], [80.2167628, 12.8830546], [80.2177391, 12.8816636], [80.2176318, 12.8811093], [80.2172992, 12.8809943], [80.2163658, 12.8827095], [80.2150569, 12.8849895], [80.2144507, 12.8860145], [80.2126912, 12.8849163], [80.2163175, 12.8786096], [80.2135012, 12.8791849], [80.2110926, 12.8796241], [80.2105132, 12.8797235], [80.2101163, 12.8799431], [80.2105508, 12.8820924], [80.2111409, 12.8848692], [80.211157, 12.8851359], [80.2106849, 12.8869244], [80.2104435, 12.88815], [80.2103047, 12.8886578], [80.2101715, 12.8891602], [80.2100086, 12.8897902], [80.2099149, 12.8901146], [80.2098857, 12.8901675], [80.2098463, 12.8901904], [80.2097697, 12.8901932], [80.2096366, 12.8901554], [80.2097086, 12.8897063], [80.2084372, 12.8893717], [80.2084801, 12.8897639], [80.2083889, 12.8900122], [80.2085391, 12.890075], [80.208625, 12.8918738], [80.2082495, 12.8917745], [80.2082763, 12.8925798], [80.208515, 12.8954967], [80.2085686, 12.8961513], [80.2087323, 12.8964938], [80.2088583, 12.8974455], [80.2087942, 12.8974622], [80.2087784, 12.8975676]]]]}}]}